{"type": "FeatureCollection", "features": [ {"type": "Feature", "properties": {"norad_id": 28659, "name": "DIRECTV 8", "group": "intelsat", "lat": -0.04841780129254644, "lon": -106.57979360141411, "alt_km": 35775.618199432305, "timestamp": "2025-12-20T18:51:31.385326+00:00", "meta": {"OBJECT_NAME": "DIRECTV 8", "OBJECT_ID": "2005-019A", "EPOCH": "2025-12-20T10:08:09.379392", "MEAN_MOTION": 1.00270176, "ECCENTRICITY": 0.00028828, "INCLINATION": 0.0251, "RA_OF_ASC_NODE": 9.5951, "ARG_OF_PERICENTER": 270.6825, "MEAN_ANOMALY": 201.9689, "EPHEMERIS_TYPE": 0, "CLASSIFICATION_TYPE": "U", "NORAD_CAT_ID": 28659, "ELEMENT_SET_NO": 999, "REV_AT_EPOCH": 7528, "BSTAR": 0, "MEAN_MOTION_DOT": 0, "MEAN_MOTION_DDOT": 0}, "tle": {"line1": "1 28659U 05019A   25354.42233078  .00000000  00000+0  00000+0 0  9991", "line2": "2 28659   0.0251   9.5951 0002882 270.6825 201.9689  1.00270176 75280"}}, "geometry": {"type": "Point", "coordinates": [-106.57979360141411, -0.04841780129254644]}}, {"type": "Feature", "properties": {"norad_id": 28702, "name": "GALAXY 28 (G-28)", "group": "intelsat", "lat": -1.1188227664949033, "lon": -76.2136789081477, "alt_km": 35774.16853502319, "timestamp": "2025-12-20T18:51:31.385357+00:00", "meta": {"OBJECT_NAME": "GALAXY 28 (G-28)", "OBJECT_ID": "2005-022A", "EPOCH": "2025-12-20T00:49:30.482112", "MEAN_MOTION": 1.00271047, "ECCENTRICITY": 0.00029384, "INCLINATION": 2.8382, "RA_OF_ASC_NODE": 81.1982, "ARG_OF_PERICENTER": 194.0723, "MEAN_ANOMALY": 97.2981, "EPHEMERIS_TYPE": 0, "CLASSIFICATION_TYPE": "U", "NORAD_CAT_ID": 28702, "ELEMENT_SET_NO": 999, "REV_AT_EPOCH": 5017, "BSTAR": 0, "MEAN_MOTION_DOT": -1.65e-06, "MEAN_MOTION_DDOT": 0}, "tle": {"line1": "1 28702U 05022A   25354.03438058 -.00000165  00000+0  00000+0 0  9999", "line2": "2 28702   2.8382  81.1982 0002938 194.0723  97.2981  1.00271047 50172"}}, "geometry": {"type": "Point", "coordinates": [-76.2136789081477, -1.1188227664949033]}}, {"type": "Feature", "properties": {"norad_id": 29236, "name": "GALAXY 16 (G-16)", "group": "intelsat", "lat": 0.007337979319844918, "lon": -86.51710753090917, "alt_km": 35775.83417945818, "timestamp": "2025-12-20T18:51:31.385392+00:00", "meta": {"OBJECT_NAME": "GALAXY 16 (G-16)", "OBJECT_ID": "2006-023A", "EPOCH": "2025-12-20T12:09:57.868128", "MEAN_MOTION": 1.00271154, "ECCENTRICITY": 0.0002466, "INCLINATION": 0.0202, "RA_OF_ASC_NODE": 181.2175, "ARG_OF_PERICENTER": 88.6621, "MEAN_ANOMALY": 262.9469, "EPHEMERIS_TYPE": 0, "CLASSIFICATION_TYPE": "U", "NORAD_CAT_ID": 29236, "ELEMENT_SET_NO": 999, "REV_AT_EPOCH": 7118, "BSTAR": 0, "MEAN_MOTION_DOT": -1.03e-06, "MEAN_MOTION_DDOT": 0}, "tle": {"line1": "1 29236U 06023A   25354.50691977 -.00000103  00000+0  00000+0 0  9999", "line2": "2 29236   0.0202 181.2175 0002466  88.6621 262.9469  1.00271154 71188"}}, "geometry": {"type": "Point", "coordinates": [-86.51710753090917, 0.007337979319844918]}}, {"type": "Feature", "properties": {"norad_id": 29494, "name": "DIRECTV 9S", "group": "intelsat", "lat": -0.30501803358564, "lon": -88.72829965364771, "alt_km": 35774.22607253382, "timestamp": "2025-12-20T18:51:31.385406+00:00", "meta": {"OBJECT_NAME": "DIRECTV 9S", "OBJECT_ID": "2006-043A", "EPOCH": "2025-12-20T11:02:13.713216", "MEAN_MOTION": 1.00271636, "ECCENTRICITY": 0.00028256, "INCLINATION": 1.9589, "RA_OF_ASC_NODE": 83.1325, "ARG_OF_PERICENTER": 192.0935, "MEAN_ANOMALY": 238.4139, "EPHEMERIS_TYPE": 0, "CLASSIFICATION_TYPE": "U", "NORAD_CAT_ID": 29494, "ELEMENT_SET_NO": 999, "REV_AT_EPOCH": 4959, "BSTAR": 0, "MEAN_MOTION_DOT": -9.1e-07, "MEAN_MOTION_DDOT": 0}, "tle": {"line1": "1 29494U 06043A   25354.45988094 -.00000091  00000+0  00000+0 0  9996", "line2": "2 29494   1.9589  83.1325 0002825 192.0935 238.4139  1.00271636 49593"}}, "geometry": {"type": "Point", "coordinates": [-88.72829965364771, -0.30501803358564]}}, {"type": "Feature", "properties": {"norad_id": 31307, "name": "GALAXY 17 (G-17)", "group": "intelsat", "lat": -1.104934003663386, "lon": -72.46429043759801, "alt_km": 35767.47664473798, "timestamp": "2025-12-20T18:51:31.385417+00:00", "meta": {"OBJECT_NAME": "GALAXY 17 (G-17)", "OBJECT_ID": "2007-016B", "EPOCH": "2025-12-20T11:24:08.214912", "MEAN_MOTION": 1.0027177, "ECCENTRICITY": 0.00054302, "INCLINATION": 2.5181, "RA_OF_ASC_NODE": 82.2, "ARG_OF_PERICENTER": 169.9015, "MEAN_ANOMALY": 283.2719, "EPHEMERIS_TYPE": 0, "CLASSIFICATION_TYPE": "U", "NORAD_CAT_ID": 31307, "ELEMENT_SET_NO": 999, "REV_AT_EPOCH": 6801, "BSTAR": 0, "MEAN_MOTION_DOT": -1.85e-06, "MEAN_MOTION_DDOT": 0}, "tle": {"line1": "1 31307U 07016B   25354.47509508 -.00000185  00000+0  00000+0 0  9998", "line2": "2 31307   2.5181  82.2000 0005430 169.9015 283.2719  1.00271770 68010"}}, "geometry": {"type": "Point", "coordinates": [-72.46429043759801, -1.104934003663386]}}, {"type": "Feature", "properties": {"norad_id": 31862, "name": "DIRECTV 10", "group": "intelsat", "lat": -0.001552177277884184, "lon": -90.31267670030178, "alt_km": 35785.33008000967, "timestamp": "2025-12-20T18:51:31.385429+00:00", "meta": {"OBJECT_NAME": "DIRECTV 10", "OBJECT_ID": "2007-032A", "EPOCH": "2025-12-20T10:17:47.330592", "MEAN_MOTION": 1.00272197, "ECCENTRICITY": 2.268e-05, "INCLINATION": 0.0081, "RA_OF_ASC_NODE": 103.0199, "ARG_OF_PERICENTER": 118.7646, "MEAN_ANOMALY": 279.1244, "EPHEMERIS_TYPE": 0, "CLASSIFICATION_TYPE": "U", "NORAD_CAT_ID": 31862, "ELEMENT_SET_NO": 999, "REV_AT_EPOCH": 4380, "BSTAR": 0, "MEAN_MOTION_DOT": -7.9e-07, "MEAN_MOTION_DDOT": 0}, "tle": {"line1": "1 31862U 07032A   25354.42902003 -.00000079  00000+0  00000+0 0  9996", "line2": "2 31862   0.0081 103.0199 0000226 118.7646 279.1244  1.00272197 43800"}}, "geometry": {"type": "Point", "coordinates": [-90.31267670030178, -0.001552177277884184]}}, {"type": "Feature", "properties": {"norad_id": 32253, "name": "INTELSAT 11 (IS-11)", "group": "intelsat", "lat": 2.6245357091676444, "lon": -157.24301376290867, "alt_km": 36106.355976900784, "timestamp": "2025-12-20T18:51:31.385440+00:00", "meta": {"OBJECT_NAME": "INTELSAT 11 (IS-11)", "OBJECT_ID": "2007-044B", "EPOCH": "2025-12-20T08:37:38.768736", "MEAN_MOTION": 0.99052252, "ECCENTRICITY": 0.00085347, "INCLINATION": 3.0988, "RA_OF_ASC_NODE": 80.8927, "ARG_OF_PERICENTER": 168.917, "MEAN_ANOMALY": 160.9677, "EPHEMERIS_TYPE": 0, "CLASSIFICATION_TYPE": "U", "NORAD_CAT_ID": 32253, "ELEMENT_SET_NO": 999, "REV_AT_EPOCH": 6667, "BSTAR": 0, "MEAN_MOTION_DOT": -5.8e-07, "MEAN_MOTION_DDOT": 0}, "tle": {"line1": "1 32253U 07044B   25354.35947649 -.00000058  00000+0  00000+0 0  9998", "line2": "2 32253   3.0988  80.8927 0008534 168.9170 160.9677  0.99052252 66676"}}, "geometry": {"type": "Point", "coordinates": [-157.24301376290867, 2.6245357091676444]}}, {"type": "Feature", "properties": {"norad_id": 32388, "name": "HORIZONS-2", "group": "intelsat", "lat": -1.2783027024797629, "lon": -61.292124283510894, "alt_km": 35768.283940132555, "timestamp": "2025-12-20T18:51:31.385452+00:00", "meta": {"OBJECT_NAME": "HORIZONS-2", "OBJECT_ID": "2007-063B", "EPOCH": "2025-12-20T12:50:36.450240", "MEAN_MOTION": 1.00271677, "ECCENTRICITY": 0.00045883, "INCLINATION": 2.1407, "RA_OF_ASC_NODE": 82.878, "ARG_OF_PERICENTER": 193.8672, "MEAN_ANOMALY": 291.4916, "EPHEMERIS_TYPE": 0, "CLASSIFICATION_TYPE": "U", "NORAD_CAT_ID": 32388, "ELEMENT_SET_NO": 999, "REV_AT_EPOCH": 6602, "BSTAR": 0, "MEAN_MOTION_DOT": -2.32e-06, "MEAN_MOTION_DDOT": 0}, "tle": {"line1": "1 32388U 07063B   25354.53514410 -.00000232  00000+0  00000+0 0  9998", "line2": "2 32388   2.1407  82.8780 0004588 193.8672 291.4916  1.00271677 66021"}}, "geometry": {"type": "Point", "coordinates": [-61.292124283510894, -1.2783027024797629]}}, {"type": "Feature", "properties": {"norad_id": 32729, "name": "DIRECTV 11", "group": "intelsat", "lat": -0.014352750662163252, "lon": -86.6777798840644, "alt_km": 35781.06090045371, "timestamp": "2025-12-20T18:51:31.385464+00:00", "meta": {"OBJECT_NAME": "DIRECTV 11", "OBJECT_ID": "2008-013A", "EPOCH": "2025-12-20T12:09:57.854304", "MEAN_MOTION": 1.00281934, "ECCENTRICITY": 6.957e-05, "INCLINATION": 0.0453, "RA_OF_ASC_NODE": 198.5655, "ARG_OF_PERICENTER": 32.627, "MEAN_ANOMALY": 301.4589, "EPHEMERIS_TYPE": 0, "CLASSIFICATION_TYPE": "U", "NORAD_CAT_ID": 32729, "ELEMENT_SET_NO": 999, "REV_AT_EPOCH": 4380, "BSTAR": 0, "MEAN_MOTION_DOT": -1.03e-06, "MEAN_MOTION_DDOT": 0}, "tle": {"line1": "1 32729U 08013A   25354.50691961 -.00000103  00000+0  00000+0 0  9994", "line2": "2 32729   0.0453 198.5655 0000695  32.6270 301.4589  1.00281934 43809"}}, "geometry": {"type": "Point", "coordinates": [-86.6777798840644, -0.014352750662163252]}}, {"type": "Feature", "properties": {"norad_id": 32951, "name": "GALAXY 18 (G-18)", "group": "intelsat", "lat": -0.01980765283007279, "lon": -110.53768485662943, "alt_km": 35775.370403818066, "timestamp": "2025-12-20T18:51:31.385475+00:00", "meta": {"OBJECT_NAME": "GALAXY 18 (G-18)", "OBJECT_ID": "2008-024A", "EPOCH": "2025-12-20T10:15:38.712960", "MEAN_MOTION": 1.00271052, "ECCENTRICITY": 0.00028282, "INCLINATION": 0.0144, "RA_OF_ASC_NODE": 55.5326, "ARG_OF_PERICENTER": 218.577, "MEAN_ANOMALY": 206.0538, "EPHEMERIS_TYPE": 0, "CLASSIFICATION_TYPE": "U", "NORAD_CAT_ID": 32951, "ELEMENT_SET_NO": 999, "REV_AT_EPOCH": 4406, "BSTAR": 0, "MEAN_MOTION_DOT": 4.9e-07, "MEAN_MOTION_DDOT": 0}, "tle": {"line1": "1 32951U 08024A   25354.42753140  .00000049  00000+0  00000+0 0  9990", "line2": "2 32951   0.0144  55.5326 0002828 218.5770 206.0538  1.00271052 44063"}}, "geometry": {"type": "Point", "coordinates": [-110.53768485662943, -0.01980765283007279]}}]}